{
  "type": "FeatureCollection",
  "features": [
    {
      "type": "Feature",
      "properties": {
        "norad_id": 34556,
        "name": "COSMOS 2251 DEB",
        "group": "cosmos-2251-debris",
        "lat": 73.86226519311997,
        "lon": -151.29669557806085,
        "alt_km": 627.2571182568208,
        "timestamp": "2025-12-19T20:43:00.480412+00:00",
        "meta_object_name": "COSMOS 2251 DEB",
        "meta_object_id": "1993-036US",
        "meta_epoch": "2025-12-19T07:24:32.315904",
        "meta_mean_motion": 14.77994131,
        "meta_eccentricity": 0.00069814,
        "meta_inclination": 74.0159,
        "meta_ra_of_asc_node": 111.9433,
        "meta_arg_of_pericenter": 172.2281,
        "meta_mean_anomaly": 210.9088,
        "meta_ephemeris_type": 0,
        "meta_classification_type": "U",
        "meta_norad_cat_id": 34556,
        "meta_element_set_no": 999,
        "meta_rev_at_epoch": 88426,
        "meta_bstar": 0.0014389337,
        "meta_mean_motion_dot": 0.00010369,
        "meta_mean_motion_ddot": 0,
        "tle_line1": "1 34556U 93036US  25353.30870736  .00010369  00000+0  14389-2 0  9991",
        "tle_line2": "2 34556  74.0159 111.9433 0006981 172.2281 210.9088 14.77994131884262"
      },
      "geometry": {
        "type": "Point",
        "coordinates": [
          -151.29669557806085,
          73.86226519311997
        ]
      }
    },
    {
      "type": "Feature",
      "properties": {
        "norad_id": 34560,
        "name": "COSMOS 2251 DEB",
        "group": "cosmos-2251-debris",
        "lat": -19.336218189859537,
        "lon": -45.97128651195233,
        "alt_km": 648.6170998199868,
        "timestamp": "2025-12-19T20:43:00.480423+00:00",
        "meta_object_name": "COSMOS 2251 DEB",
        "meta_object_id": "1993-036UW",
        "meta_epoch": "2025-12-18T20:01:55.517376",
        "meta_mean_motion": 14.72290219,
        "meta_eccentricity": 0.00142436,
        "meta_inclination": 74.0159,
        "meta_ra_of_asc_node": 130.259,
        "meta_arg_of_pericenter": 212.1833,
        "meta_mean_anomaly": 298.6419,
        "meta_ephemeris_type": 0,
        "meta_classification_type": "U",
        "meta_norad_cat_id": 34560,
        "meta_element_set_no": 999,
        "meta_rev_at_epoch": 88341,
        "meta_bstar": 0.0016989681,
        "meta_mean_motion_dot": 0.00010739,
        "meta_mean_motion_ddot": 0,
        "tle_line1": "1 34560U 93036UW  25352.83467034  .00010739  00000+0  16990-2 0  9997",
        "tle_line2": "2 34560  74.0159 130.2590 0014243 212.1833 298.6419 14.72290219883410"
      },
      "geometry": {
        "type": "Point",
        "coordinates": [
          -45.97128651195233,
          -19.336218189859537
        ]
      }
    },
    {
      "type": "Feature",
      "properties": {
        "norad_id": 34563,
        "name": "COSMOS 2251 DEB",
        "group": "cosmos-2251-debris",
        "lat": 25.28511692634326,
        "lon": -161.8199328355747,
        "alt_km": 738.0089484122482,
        "timestamp": "2025-12-19T20:43:00.480433+00:00",
        "meta_object_name": "COSMOS 2251 DEB",
        "meta_object_id": "1993-036UZ",
        "meta_epoch": "2025-12-19T06:12:30.254400",
        "meta_mean_motion": 14.46528877,
        "meta_eccentricity": 0.00138896,
        "meta_inclination": 74.0371,
        "meta_ra_of_asc_node": 191.5376,
        "meta_arg_of_pericenter": 285.1714,
        "meta_mean_anomaly": 194.4043,
        "meta_ephemeris_type": 0,
        "meta_classification_type": "U",
        "meta_norad_cat_id": 34563,
        "meta_element_set_no": 999,
        "meta_rev_at_epoch": 88291,
        "meta_bstar": 0.00030985174,
        "meta_mean_motion_dot": 1.09e-05,
        "meta_mean_motion_ddot": 0,
        "tle_line1": "1 34563U 93036UZ  25353.25868350  .00001090  00000+0  30985-3 0  9994",
        "tle_line2": "2 34563  74.0371 191.5376 0013889 285.1714 194.4043 14.46528877882919"
      },
      "geometry": {
        "type": "Point",
        "coordinates": [
          -161.8199328355747,
          25.28511692634326
        ]
      }
    },
    {
      "type": "Feature",
      "properties": {
        "norad_id": 34564,
        "name": "COSMOS 2251 DEB",
        "group": "cosmos-2251-debris",
        "lat": 15.384358982699542,
        "lon": -130.6483385503055,
        "alt_km": 747.4759825362562,
        "timestamp": "2025-12-19T20:43:00.480443+00:00",
        "meta_object_name": "COSMOS 2251 DEB",
        "meta_object_id": "1993-036VA",
        "meta_epoch": "2025-12-19T01:11:56.569056",
        "meta_mean_motion": 14.4070084,
        "meta_eccentricity": 0.00192521,
        "meta_inclination": 74.0318,
        "meta_ra_of_asc_node": 226.3371,
        "meta_arg_of_pericenter": 329.3416,
        "meta_mean_anomaly": 150.4354,
        "meta_ephemeris_type": 0,
        "meta_classification_type": "U",
        "meta_norad_cat_id": 34564,
        "meta_element_set_no": 999,
        "meta_rev_at_epoch": 88097,
        "meta_bstar": 0.00019435218,
        "meta_mean_motion_dot": 5.96e-06,
        "meta_mean_motion_ddot": 0,
        "tle_line1": "1 34564U 93036VA  25353.04996029  .00000596  00000+0  19435-3 0  9994",
        "tle_line2": "2 34564  74.0318 226.3371 0019252 329.3416 150.4354 14.40700840880970"
      },
      "geometry": {
        "type": "Point",
        "coordinates": [
          -130.6483385503055,
          15.384358982699542
        ]
      }
    },
    {
      "type": "Feature",
      "properties": {
        "norad_id": 34567,
        "name": "COSMOS 2251 DEB",
        "group": "cosmos-2251-debris",
        "lat": -4.655368159532623,
        "lon": 142.62465814295413,
        "alt_km": 854.8381108248077,
        "timestamp": "2025-12-19T20:43:00.480453+00:00",
        "meta_object_name": "COSMOS 2251 DEB",
        "meta_object_id": "1993-036VD",
        "meta_epoch": "2025-12-18T21:53:53.679840",
        "meta_mean_motion": 14.24023202,
        "meta_eccentricity": 0.0074285,
        "meta_inclination": 74.0405,
        "meta_ra_of_asc_node": 145.6706,
        "meta_arg_of_pericenter": 218.6375,
        "meta_mean_anomaly": 303.884,
        "meta_ephemeris_type": 0,
        "meta_classification_type": "U",
        "meta_norad_cat_id": 34567,
        "meta_element_set_no": 999,
        "meta_rev_at_epoch": 87212,
        "meta_bstar": 0.0001927977,
        "meta_mean_motion_dot": 4.3e-06,
        "meta_mean_motion_ddot": 0,
        "tle_line1": "1 34567U 93036VD  25352.91242685  .00000430  00000+0  19280-3 0  9999",
        "tle_line2": "2 34567  74.0405 145.6706 0074285 218.6375 303.8840 14.24023202872120"
      },
      "geometry": {
        "type": "Point",
        "coordinates": [
          142.62465814295413,
          -4.655368159532623
        ]
      }
    },
    {
      "type": "Feature",
      "properties": {
        "norad_id": 34569,
        "name": "COSMOS 2251 DEB",
        "group": "cosmos-2251-debris",
        "lat": -0.4707098198404469,
        "lon": 5.39077439141422,
        "alt_km": 922.7946569032601,
        "timestamp": "2025-12-19T20:43:00.480464+00:00",
        "meta_object_name": "COSMOS 2251 DEB",
        "meta_object_id": "1993-036VF",
        "meta_epoch": "2025-12-19T00:14:44.283264",
        "meta_mean_motion": 14.24767816,
        "meta_eccentricity": 0.01575762,
        "meta_inclination": 73.9892,
        "meta_ra_of_asc_node": 186.7976,
        "meta_arg_of_pericenter": 13.7528,
        "meta_mean_anomaly": 112.9889,
        "meta_ephemeris_type": 0,
        "meta_classification_type": "U",
        "meta_norad_cat_id": 34569,
        "meta_element_set_no": 999,
        "meta_rev_at_epoch": 87057,
        "meta_bstar": 0.00035668833,
        "meta_mean_motion_dot": 9.19e-06,
        "meta_mean_motion_ddot": 0,
        "tle_line1": "1 34569U 93036VF  25353.01023476  .00000919  00000+0  35669-3 0  9999",
        "tle_line2": "2 34569  73.9892 186.7976 0157576  13.7528 112.9889 14.24767816870579"
      },
      "geometry": {
        "type": "Point",
        "coordinates": [
          5.39077439141422,
          -0.4707098198404469
        ]
      }
    },
    {
      "type": "Feature",
      "properties": {
        "norad_id": 34570,
        "name": "COSMOS 2251 DEB",
        "group": "cosmos-2251-debris",
        "lat": -13.36198788698511,
        "lon": 29.8143496139849,
        "alt_km": 936.505710593613,
        "timestamp": "2025-12-19T20:43:00.480474+00:00",
        "meta_object_name": "COSMOS 2251 DEB",
        "meta_object_id": "1993-036VG",
        "meta_epoch": "2025-12-17T14:47:22.949376",
        "meta_mean_motion": 13.99827814,
        "meta_eccentricity": 0.01902686,
        "meta_inclination": 73.9566,
        "meta_ra_of_asc_node": 209.802,
        "meta_arg_of_pericenter": 91.1991,
        "meta_mean_anomaly": 301.5791,
        "meta_ephemeris_type": 0,
        "meta_classification_type": "U",
        "meta_norad_cat_id": 34570,
        "meta_element_set_no": 999,
        "meta_rev_at_epoch": 85669,
        "meta_bstar": 0.00040162603,
        "meta_mean_motion_dot": 6.66e-06,
        "meta_mean_motion_ddot": 0,
        "tle_line1": "1 34570U 93036VG  25351.61623784  .00000666  00000+0  40163-3 0  9997",
        "tle_line2": "2 34570  73.9566 209.8020 0190268  91.1991 301.5791 13.99827814856696"
      },
      "geometry": {
        "type": "Point",
        "coordinates": [
          29.8143496139849,
          -13.36198788698511
        ]
      }
    }
  ]
}